{"type": "FeatureCollection", "features": [ {"type": "Feature", "properties": {"norad_id": 36005, "name": "COSMOS 2251 DEB", "group": "cosmos-2251-debris", "lat": 28.373573178044033, "lon": 113.90713489082448, "alt_km": 769.3224270063274, "timestamp": "2025-12-06T20:37:56.472669+00:00", "meta": {"OBJECT_NAME": "COSMOS 2251 DEB", "OBJECT_ID": "1993-036AWX", "EPOCH": "2025-12-06T02:14:49.339104", "MEAN_MOTION": 14.47340655, "ECCENTRICITY": 0.00620912, "INCLINATION": 74.0265, "RA_OF_ASC_NODE": 106.4403, "ARG_OF_PERICENTER": 245.158, "MEAN_ANOMALY": 114.3115, "EPHEMERIS_TYPE": 0, "CLASSIFICATION_TYPE": "U", "NORAD_CAT_ID": 36005, "ELEMENT_SET_NO": 999, "REV_AT_EPOCH": 87488, "BSTAR": 0.0003835413, "MEAN_MOTION_DOT": 1.41e-05, "MEAN_MOTION_DDOT": 0}, "tle": {"line1": "1 36005U 93036AWX 25340.09362661  .00001410  00000+0  38354-3 0  9993", "line2": "2 36005  74.0265 106.4403 0062091 245.1580 114.3115 14.47340655874881"}}, "geometry": {"type": "Point", "coordinates": [113.90713489082448, 28.373573178044033]}}, {"type": "Feature", "properties": {"norad_id": 36045, "name": "COSMOS 2251 DEB", "group": "cosmos-2251-debris", "lat": -27.89020682713632, "lon": 61.80219965899937, "alt_km": 682.344973387525, "timestamp": "2025-12-06T20:37:56.472680+00:00", "meta": {"OBJECT_NAME": "COSMOS 2251 DEB", "OBJECT_ID": "1993-036AXG", "EPOCH": "2025-12-06T12:35:46.842144", "MEAN_MOTION": 14.69624154, "ECCENTRICITY": 0.00486216, "INCLINATION": 73.7645, "RA_OF_ASC_NODE": 71.3331, "ARG_OF_PERICENTER": 87.3165, "MEAN_ANOMALY": 273.3569, "EPHEMERIS_TYPE": 0, "CLASSIFICATION_TYPE": "U", "NORAD_CAT_ID": 36045, "ELEMENT_SET_NO": 999, "REV_AT_EPOCH": 8297, "BSTAR": 0.0044051955, "MEAN_MOTION_DOT": 0.00026747, "MEAN_MOTION_DDOT": 0}, "tle": {"line1": "1 36045U 93036AXG 25340.52484771  .00026747  00000+0  44052-2 0  9993", "line2": "2 36045  73.7645  71.3331 0048621  87.3165 273.3569 14.69624154 82974"}}, "geometry": {"type": "Point", "coordinates": [61.80219965899937, -27.89020682713632]}}, {"type": "Feature", "properties": {"norad_id": 36046, "name": "COSMOS 2251 DEB", "group": "cosmos-2251-debris", "lat": 49.008590995328206, "lon": 88.56699954564677, "alt_km": 647.835787613546, "timestamp": "2025-12-06T20:37:56.472693+00:00", "meta": {"OBJECT_NAME": "COSMOS 2251 DEB", "OBJECT_ID": "1993-036AXH", "EPOCH": "2025-12-06T03:44:04.978752", "MEAN_MOTION": 14.65199158, "ECCENTRICITY": 0.0055425, "INCLINATION": 74.0158, "RA_OF_ASC_NODE": 289.1818, "ARG_OF_PERICENTER": 76.9572, "MEAN_ANOMALY": 298.4927, "EPHEMERIS_TYPE": 0, "CLASSIFICATION_TYPE": "U", "NORAD_CAT_ID": 36046, "ELEMENT_SET_NO": 999, "REV_AT_EPOCH": 63907, "BSTAR": 0.0011045621, "MEAN_MOTION_DOT": 6.055e-05, "MEAN_MOTION_DDOT": 0}, "tle": {"line1": "1 36046U 93036AXH 25340.15561318  .00006055  00000+0  11046-2 0  9993", "line2": "2 36046  74.0158 289.1818 0055425  76.9572 298.4927 14.65199158639075"}}, "geometry": {"type": "Point", "coordinates": [88.56699954564677, 49.008590995328206]}}, {"type": "Feature", "properties": {"norad_id": 36047, "name": "COSMOS 2251 DEB", "group": "cosmos-2251-debris", "lat": 43.41773192030609, "lon": 150.31333841200797, "alt_km": 579.5980374638693, "timestamp": "2025-12-06T20:37:56.472704+00:00", "meta": {"OBJECT_NAME": "COSMOS 2251 DEB", "OBJECT_ID": "1993-036AXJ", "EPOCH": "2025-12-06T07:11:27.868704", "MEAN_MOTION": 14.95547906, "ECCENTRICITY": 0.00079611, "INCLINATION": 74.0355, "RA_OF_ASC_NODE": 347.1599, "ARG_OF_PERICENTER": 12.8057, "MEAN_ANOMALY": 347.3328, "EPHEMERIS_TYPE": 0, "CLASSIFICATION_TYPE": "U", "NORAD_CAT_ID": 36047, "ELEMENT_SET_NO": 999, "REV_AT_EPOCH": 65843, "BSTAR": 0.0031932011, "MEAN_MOTION_DOT": 0.00035581, "MEAN_MOTION_DDOT": 0}, "tle": {"line1": "1 36047U 93036AXJ 25340.29962811  .00035581  00000+0  31932-2 0  9994", "line2": "2 36047  74.0355 347.1599 0007961  12.8057 347.3328 14.95547906658436"}}, "geometry": {"type": "Point", "coordinates": [150.31333841200797, 43.41773192030609]}}, {"type": "Feature", "properties": {"norad_id": 36048, "name": "COSMOS 2251 DEB", "group": "cosmos-2251-debris", "lat": -26.875530197183316, "lon": 138.4290133720335, "alt_km": 787.8428431555521, "timestamp": "2025-12-06T20:37:56.472714+00:00", "meta": {"OBJECT_NAME": "COSMOS 2251 DEB", "OBJECT_ID": "1993-036AXK", "EPOCH": "2025-12-06T08:40:35.602752", "MEAN_MOTION": 14.3783428, "ECCENTRICITY": 0.00263342, "INCLINATION": 74.0563, "RA_OF_ASC_NODE": 311.0147, "ARG_OF_PERICENTER": 2.3999, "MEAN_ANOMALY": 148.1442, "EPHEMERIS_TYPE": 0, "CLASSIFICATION_TYPE": "U", "NORAD_CAT_ID": 36048, "ELEMENT_SET_NO": 999, "REV_AT_EPOCH": 85410, "BSTAR": 0.0005527759, "MEAN_MOTION_DOT": 1.647e-05, "MEAN_MOTION_DDOT": 0}, "tle": {"line1": "1 36048U 93036AXK 25340.36152318  .00001647  00000+0  55278-3 0  9992", "line2": "2 36048  74.0563 311.0147 0026334   2.3999 148.1442 14.37834280854107"}}, "geometry": {"type": "Point", "coordinates": [138.4290133720335, -26.875530197183316]}}, {"type": "Feature", "properties": {"norad_id": 36049, "name": "COSMOS 2251 DEB", "group": "cosmos-2251-debris", "lat": 17.732126559043785, "lon": -54.81049002903285, "alt_km": 682.0915458059462, "timestamp": "2025-12-06T20:37:56.472724+00:00", "meta": {"OBJECT_NAME": "COSMOS 2251 DEB", "OBJECT_ID": "1993-036AXL", "EPOCH": "2025-12-06T10:02:31.964064", "MEAN_MOTION": 14.62007572, "ECCENTRICITY": 0.00110936, "INCLINATION": 74.0303, "RA_OF_ASC_NODE": 131.2879, "ARG_OF_PERICENTER": 216.0889, "MEAN_ANOMALY": 143.953, "EPHEMERIS_TYPE": 0, "CLASSIFICATION_TYPE": "U", "NORAD_CAT_ID": 36049, "ELEMENT_SET_NO": 999, "REV_AT_EPOCH": 85272, "BSTAR": 0.0027130423, "MEAN_MOTION_DOT": 0.00013616, "MEAN_MOTION_DDOT": 0}, "tle": {"line1": "1 36049U 93036AXL 25340.41842551  .00013616  00000+0  27130-2 0  9998", "line2": "2 36049  74.0303 131.2879 0011093 216.0889 143.9530 14.62007572852723"}}, "geometry": {"type": "Point", "coordinates": [-54.81049002903285, 17.732126559043785]}}, {"type": "Feature", "properties": {"norad_id": 36050, "name": "COSMOS 2251 DEB", "group": "cosmos-2251-debris", "lat": 47.43114895516043, "lon": 7.833243371258841, "alt_km": 616.3473169717345, "timestamp": "2025-12-06T20:37:56.472760+00:00", "meta": {"OBJECT_NAME": "COSMOS 2251 DEB", "OBJECT_ID": "1993-036AXM", "EPOCH": "2025-12-06T08:51:05.095872", "MEAN_MOTION": 15.00898049, "ECCENTRICITY": 0.00889957, "INCLINATION": 74.031, "RA_OF_ASC_NODE": 206.997, "ARG_OF_PERICENTER": 288.0821, "MEAN_ANOMALY": 71.0686, "EPHEMERIS_TYPE": 0, "CLASSIFICATION_TYPE": "U", "NORAD_CAT_ID": 36050, "ELEMENT_SET_NO": 999, "REV_AT_EPOCH": 66939, "BSTAR": 0.00092236515, "MEAN_MOTION_DOT": 0.0001276, "MEAN_MOTION_DDOT": 0}, "tle": {"line1": "1 36050U 93036AXM 25340.36880898  .00012760  00000+0  92237-3 0  9990", "line2": "2 36050  74.0310 206.9970 0088995 288.0821  71.0686 15.00898049669397"}}, "geometry": {"type": "Point", "coordinates": [7.833243371258841, 47.43114895516043]}}, {"type": "Feature", "properties": {"norad_id": 36053, "name": "COSMOS 2251 DEB", "group": "cosmos-2251-debris", "lat": -60.401579488403144, "lon": 14.595786329154157, "alt_km": 724.3953845259466, "timestamp": "2025-12-06T20:37:56.472774+00:00", "meta": {"OBJECT_NAME": "COSMOS 2251 DEB", "OBJECT_ID": "1993-036AXQ", "EPOCH": "2025-12-06T04:41:05.022528", "MEAN_MOTION": 14.57036402, "ECCENTRICITY": 0.00330469, "INCLINATION": 73.8695, "RA_OF_ASC_NODE": 165.2413, "ARG_OF_PERICENTER": 116.5127, "MEAN_ANOMALY": 243.9431, "EPHEMERIS_TYPE": 0, "CLASSIFICATION_TYPE": "U", "NORAD_CAT_ID": 36053, "ELEMENT_SET_NO": 999, "REV_AT_EPOCH": 87349, "BSTAR": 0.0025260669, "MEAN_MOTION_DOT": 0.00011441, "MEAN_MOTION_DDOT": 0}, "tle": {"line1": "1 36053U 93036AXQ 25340.19519702  .00011441  00000+0  25261-2 0  9994", "line2": "2 36053  73.8695 165.2413 0033046 116.5127 243.9431 14.57036402873497"}}, "geometry": {"type": "Point", "coordinates": [14.595786329154157, -60.401579488403144]}}, {"type": "Feature", "properties": {"norad_id": 36058, "name": "COSMOS 2251 DEB", "group": "cosmos-2251-debris", "lat": -20.824265272427223, "lon": 38.41026051618965, "alt_km": 731.9745303145755, "timestamp": "2025-12-06T20:37:56.472785+00:00", "meta": {"OBJECT_NAME": "COSMOS 2251 DEB", "OBJECT_ID": "1993-036AXV", "EPOCH": "2025-12-06T10:51:22.390272", "MEAN_MOTION": 14.58642946, "ECCENTRICITY": 0.00450276, "INCLINATION": 74.0241, "RA_OF_ASC_NODE": 45.4416, "ARG_OF_PERICENTER": 181.2803, "MEAN_ANOMALY": 178.8255, "EPHEMERIS_TYPE": 0, "CLASSIFICATION_TYPE": "U", "NORAD_CAT_ID": 36058, "ELEMENT_SET_NO": 999, "REV_AT_EPOCH": 66019, "BSTAR": 0.0011431478, "MEAN_MOTION_DOT": 5.375e-05, "MEAN_MOTION_DDOT": 0}, "tle": {"line1": "1 36058U 93036AXV 25340.45234248  .00005375  00000+0  11431-2 0  9990", "line2": "2 36058  74.0241  45.4416 0045027 181.2803 178.8255 14.58642946660194"}}, "geometry": {"type": "Point", "coordinates": [38.41026051618965, -20.824265272427223]}}, {"type": "Feature", "properties": {"norad_id": 36060, "name": "COSMOS 2251 DEB", "group": "cosmos-2251-debris", "lat": -50.66990530876295, "lon": 85.92891315955977, "alt_km": 762.0289952832163, "timestamp": "2025-12-06T20:37:56.472795+00:00", "meta": {"OBJECT_NAME": "COSMOS 2251 DEB", "OBJECT_ID": "1993-036AXX", "EPOCH": "2025-12-04T02:36:53.095968", "MEAN_MOTION": 14.41968213, "ECCENTRICITY": 0.00149828, "INCLINATION": 74.0291, "RA_OF_ASC_NODE": 250.5702, "ARG_OF_PERICENTER": 348.4876, "MEAN_ANOMALY": 11.5935, "EPHEMERIS_TYPE": 0, "CLASSIFICATION_TYPE": "U", "NORAD_CAT_ID": 36060, "ELEMENT_SET_NO": 999, "REV_AT_EPOCH": 84885, "BSTAR": 0.00063718489, "MEAN_MOTION_DOT": 2.066e-05, "MEAN_MOTION_DDOT": 0}, "tle": {"line1": "1 36060U 93036AXX 25338.10894787  .00002066  00000+0  63718-3 0  9992", "line2": "2 36060  74.0291 250.5702 0014982 348.4876  11.5935 14.41968213848851"}}, "geometry": {"type": "Point", "coordinates": [85.92891315955977, -50.66990530876295]}}]}